[{"OBJECT_NAME":"SORAYA","OBJECT_ID":"2024-015A","EPOCH":"2026-03-09T23:47:27.347136","MEAN_MOTION":14.4267567,"ECCENTRICITY":0.00145543,"INCLINATION":64.5174,"RA_OF_ASC_NODE":9.0228,"ARG_OF_PERICENTER":231.7358,"MEAN_ANOMALY":128.2419,"EPHEMERIS_TYPE":0,"CLASSIFICATION_TYPE":"U","NORAD_CAT_ID":58817,"ELEMENT_SET_NO":999,"REV_AT_EPOCH":11246,"BSTAR":9.0214372e-5,"MEAN_MOTION_DOT":1.94e-6,"MEAN_MOTION_DDOT":0},{"OBJECT_NAME":"CZ-6A DEB","OBJECT_ID":"2024-140XV","EPOCH":"2026-03-09T13:54:23.200416","MEAN_MOTION":14.54512455,"ECCENTRICITY":0.0104121,"INCLINATION":89.0909,"RA_OF_ASC_NODE":289.0259,"ARG_OF_PERICENTER":248.8355,"MEAN_ANOMALY":110.1704,"EPHEMERIS_TYPE":0,"CLASSIFICATION_TYPE":"U","NORAD_CAT_ID":61404,"ELEMENT_SET_NO":999,"REV_AT_EPOCH":7938,"BSTAR":0.00036119,"MEAN_MOTION_DOT":1.67e-5,"MEAN_MOTION_DDOT":0}]
